[Satellite]
VERSION=1.1
NAME=SL-16 R/B
NICKNAME=SL-16 R/B
TLE1=1 22803U 93059B   17186.15906020 -.00000004  00000-0  22084-4 0  9992
TLE2=2 22803  70.9890 211.5669 0017546 350.7030   9.3766 14.16775559230827
